{"type":"Feature","properties":{"ISO_A3_EH":"TWN","NAME_EN":"Taiwan"},"geometry":{"type":"Polygon","coordinates":[[[120.174102118,22.922171269],[120.333609998,22.528549997],[120.58418,22.372850002],[120.715379994,22.105329996],[120.714990004,21.975369998],[120.820860001,21.934739995],[120.899260001,22.033929999],[120.893549994,22.333939994],[121.028210003,22.660429995],[121.20055,22.798349998],[121.401679994,23.129169995],[121.647080007,24.007349995],[121.617929993,24.086359994],[121.743909999,24.26169],[121.873580006,24.535260003],[121.818070004,24.768009997],[121.88662,24.934790002],[121.982400003,24.991960007],[121.897390006,25.12003],[121.69067,25.181789998],[121.577880002,25.298859999],[121.417149996,25.164439997],[121.049359994,25.037590004],[120.903460003,24.747959997],[120.724849998,24.60811],[120.663159997,24.482519999],[120.429780007,24.159110007],[120.263269997,23.827609999],[120.183940004,23.798140007],[120.124750007,23.488140002],[120.154300001,23.364959997],[120.031870004,23.068440006],[120.174102118,22.922171269]]]}}
